KUIPER-00053            
1 64513U 25134P   26014.61729809  .00007923  00000+0  10669-2 0  9993
2 64513  51.9030 102.2014 0000105 304.3960  55.6992 14.79941210 32201
KUIPER-00054            
1 64514U 25134Q   26015.36531578  .00002366  00000+0  33933-3 0  9997
2 64514  51.8998  93.8732 0004532 138.2106 221.9203 14.79942112 32384
KUIPER-00055            
1 64515U 25134R   26015.37040967  .00005080  00000+0  25594-3 0  9996
2 64515  51.8943  70.6135 0002002 357.6432   2.4537 15.18804314 32718
KUIPER-00056            
1 64516U 25134S   26015.62839664 -.00005063  00000+0 -63511-3 0  9999
2 64516  51.9028  98.7646 0002227 143.2457 216.8659 14.79963073 32346
KUIPER-00057            
1 64517U 25134T   26015.62040598  .00002591  00000+0  36891-3 0  9992
2 64517  51.9002 106.2817 0008888 100.9698 259.2265 14.79925179 32237
KUIPER-00058            
1 64518U 25134U   26015.62738281  .00001891  00000+0  27721-3 0  9990
2 64518  51.9004 100.1712 0003627 151.1393 208.9771 14.79916063 32328
KUIPER-00059            
1 64519U 25134V   26015.63283837  .00002082  00000+0  30219-3 0  9993
2 64519  51.9026  95.2035 0002678 302.0221  58.0481 14.79911098 32399
KUIPER-00060            
1 64520U 25134W   26015.63109040 -.00000036  00000+0  24248-4 0  9992
2 64520  51.9036  96.2563 0001607 189.5795 170.5137 14.79953401 32363
