<?xml version="1.0" encoding="UTF-8"?>
<ndm xmlns:xsi="http://www.w3.org/2001/XMLSchema-instance" xsi:noNamespaceSchemaLocation="https://sanaregistry.org/r/ndmxml_unqualified/ndmxml-2.0.0-master-2.0.xsd">
<omm id="CCSDS_OMM_VERS" version="2.0">
<header><CREATION_DATE/><ORIGINATOR/></header><body><segment><metadata><OBJECT_NAME>KUIPER-00053</OBJECT_NAME><OBJECT_ID>2025-134P</OBJECT_ID><CENTER_NAME>EARTH</CENTER_NAME><REF_FRAME>TEME</REF_FRAME><TIME_SYSTEM>UTC</TIME_SYSTEM><MEAN_ELEMENT_THEORY>SGP4</MEAN_ELEMENT_THEORY></metadata><data><meanElements><EPOCH>2026-01-14T14:48:54.554976</EPOCH><MEAN_MOTION>14.79941210</MEAN_MOTION><ECCENTRICITY>.0000105</ECCENTRICITY><INCLINATION>51.9030</INCLINATION><RA_OF_ASC_NODE>102.2014</RA_OF_ASC_NODE><ARG_OF_PERICENTER>304.3960</ARG_OF_PERICENTER><MEAN_ANOMALY>55.6992</MEAN_ANOMALY></meanElements><tleParameters><EPHEMERIS_TYPE>0</EPHEMERIS_TYPE><CLASSIFICATION_TYPE>U</CLASSIFICATION_TYPE><NORAD_CAT_ID>64513</NORAD_CAT_ID><ELEMENT_SET_NO>999</ELEMENT_SET_NO><REV_AT_EPOCH>3220</REV_AT_EPOCH><BSTAR>.10669E-2</BSTAR><MEAN_MOTION_DOT>.7923E-4</MEAN_MOTION_DOT><MEAN_MOTION_DDOT>0</MEAN_MOTION_DDOT></tleParameters></data></segment></body></omm>
<omm id="CCSDS_OMM_VERS" version="2.0">
<header><CREATION_DATE/><ORIGINATOR/></header><body><segment><metadata><OBJECT_NAME>KUIPER-00054</OBJECT_NAME><OBJECT_ID>2025-134Q</OBJECT_ID><CENTER_NAME>EARTH</CENTER_NAME><REF_FRAME>TEME</REF_FRAME><TIME_SYSTEM>UTC</TIME_SYSTEM><MEAN_ELEMENT_THEORY>SGP4</MEAN_ELEMENT_THEORY></metadata><data><meanElements><EPOCH>2026-01-15T08:46:03.283392</EPOCH><MEAN_MOTION>14.79942112</MEAN_MOTION><ECCENTRICITY>.0004532</ECCENTRICITY><INCLINATION>51.8998</INCLINATION><RA_OF_ASC_NODE>93.8732</RA_OF_ASC_NODE><ARG_OF_PERICENTER>138.2106</ARG_OF_PERICENTER><MEAN_ANOMALY>221.9203</MEAN_ANOMALY></meanElements><tleParameters><EPHEMERIS_TYPE>0</EPHEMERIS_TYPE><CLASSIFICATION_TYPE>U</CLASSIFICATION_TYPE><NORAD_CAT_ID>64514</NORAD_CAT_ID><ELEMENT_SET_NO>999</ELEMENT_SET_NO><REV_AT_EPOCH>3238</REV_AT_EPOCH><BSTAR>.33933287E-3</BSTAR><MEAN_MOTION_DOT>.2366E-4</MEAN_MOTION_DOT><MEAN_MOTION_DDOT>0</MEAN_MOTION_DDOT></tleParameters></data></segment></body></omm>
<omm id="CCSDS_OMM_VERS" version="2.0">
<header><CREATION_DATE/><ORIGINATOR/></header><body><segment><metadata><OBJECT_NAME>KUIPER-00055</OBJECT_NAME><OBJECT_ID>2025-134R</OBJECT_ID><CENTER_NAME>EARTH</CENTER_NAME><REF_FRAME>TEME</REF_FRAME><TIME_SYSTEM>UTC</TIME_SYSTEM><MEAN_ELEMENT_THEORY>SGP4</MEAN_ELEMENT_THEORY></metadata><data><meanElements><EPOCH>2026-01-15T08:53:23.395488</EPOCH><MEAN_MOTION>15.18804314</MEAN_MOTION><ECCENTRICITY>.00020029</ECCENTRICITY><INCLINATION>51.8943</INCLINATION><RA_OF_ASC_NODE>70.6135</RA_OF_ASC_NODE><ARG_OF_PERICENTER>357.6432</ARG_OF_PERICENTER><MEAN_ANOMALY>2.4537</MEAN_ANOMALY></meanElements><tleParameters><EPHEMERIS_TYPE>0</EPHEMERIS_TYPE><CLASSIFICATION_TYPE>U</CLASSIFICATION_TYPE><NORAD_CAT_ID>64515</NORAD_CAT_ID><ELEMENT_SET_NO>999</ELEMENT_SET_NO><REV_AT_EPOCH>3271</REV_AT_EPOCH><BSTAR>.25593596E-3</BSTAR><MEAN_MOTION_DOT>.508E-4</MEAN_MOTION_DOT><MEAN_MOTION_DDOT>0</MEAN_MOTION_DDOT></tleParameters></data></segment></body></omm>
<omm id="CCSDS_OMM_VERS" version="2.0">
<header><CREATION_DATE/><ORIGINATOR/></header><body><segment><metadata><OBJECT_NAME>KUIPER-00056</OBJECT_NAME><OBJECT_ID>2025-134S</OBJECT_ID><CENTER_NAME>EARTH</CENTER_NAME><REF_FRAME>TEME</REF_FRAME><TIME_SYSTEM>UTC</TIME_SYSTEM><MEAN_ELEMENT_THEORY>SGP4</MEAN_ELEMENT_THEORY></metadata><data><meanElements><EPOCH>2026-01-15T15:04:53.469696</EPOCH><MEAN_MOTION>14.79963073</MEAN_MOTION><ECCENTRICITY>.00022278</ECCENTRICITY><INCLINATION>51.9028</INCLINATION><RA_OF_ASC_NODE>98.7646</RA_OF_ASC_NODE><ARG_OF_PERICENTER>143.2457</ARG_OF_PERICENTER><MEAN_ANOMALY>216.8659</MEAN_ANOMALY></meanElements><tleParameters><EPHEMERIS_TYPE>0</EPHEMERIS_TYPE><CLASSIFICATION_TYPE>U</CLASSIFICATION_TYPE><NORAD_CAT_ID>64516</NORAD_CAT_ID><ELEMENT_SET_NO>999</ELEMENT_SET_NO><REV_AT_EPOCH>3234</REV_AT_EPOCH><BSTAR>-.63510528E-3</BSTAR><MEAN_MOTION_DOT>-.5063E-4</MEAN_MOTION_DOT><MEAN_MOTION_DDOT>0</MEAN_MOTION_DDOT></tleParameters></data></segment></body></omm>
<omm id="CCSDS_OMM_VERS" version="2.0">
<header><CREATION_DATE/><ORIGINATOR/></header><body><segment><metadata><OBJECT_NAME>KUIPER-00057</OBJECT_NAME><OBJECT_ID>2025-134T</OBJECT_ID><CENTER_NAME>EARTH</CENTER_NAME><REF_FRAME>TEME</REF_FRAME><TIME_SYSTEM>UTC</TIME_SYSTEM><MEAN_ELEMENT_THEORY>SGP4</MEAN_ELEMENT_THEORY></metadata><data><meanElements><EPOCH>2026-01-15T14:53:23.076672</EPOCH><MEAN_MOTION>14.79925179</MEAN_MOTION><ECCENTRICITY>.00088885</ECCENTRICITY><INCLINATION>51.9002</INCLINATION><RA_OF_ASC_NODE>106.2817</RA_OF_ASC_NODE><ARG_OF_PERICENTER>100.9698</ARG_OF_PERICENTER><MEAN_ANOMALY>259.2265</MEAN_ANOMALY></meanElements><tleParameters><EPHEMERIS_TYPE>0</EPHEMERIS_TYPE><CLASSIFICATION_TYPE>U</CLASSIFICATION_TYPE><NORAD_CAT_ID>64517</NORAD_CAT_ID><ELEMENT_SET_NO>999</ELEMENT_SET_NO><REV_AT_EPOCH>3223</REV_AT_EPOCH><BSTAR>.36890836E-3</BSTAR><MEAN_MOTION_DOT>.2591E-4</MEAN_MOTION_DOT><MEAN_MOTION_DDOT>0</MEAN_MOTION_DDOT></tleParameters></data></segment></body></omm>
<omm id="CCSDS_OMM_VERS" version="2.0">
<header><CREATION_DATE/><ORIGINATOR/></header><body><segment><metadata><OBJECT_NAME>KUIPER-00058</OBJECT_NAME><OBJECT_ID>2025-134U</OBJECT_ID><CENTER_NAME>EARTH</CENTER_NAME><REF_FRAME>TEME</REF_FRAME><TIME_SYSTEM>UTC</TIME_SYSTEM><MEAN_ELEMENT_THEORY>SGP4</MEAN_ELEMENT_THEORY></metadata><data><meanElements><EPOCH>2026-01-15T15:03:25.874784</EPOCH><MEAN_MOTION>14.79916063</MEAN_MOTION><ECCENTRICITY>.00036278</ECCENTRICITY><INCLINATION>51.9004</INCLINATION><RA_OF_ASC_NODE>100.1712</RA_OF_ASC_NODE><ARG_OF_PERICENTER>151.1393</ARG_OF_PERICENTER><MEAN_ANOMALY>208.9771</MEAN_ANOMALY></meanElements><tleParameters><EPHEMERIS_TYPE>0</EPHEMERIS_TYPE><CLASSIFICATION_TYPE>U</CLASSIFICATION_TYPE><NORAD_CAT_ID>64518</NORAD_CAT_ID><ELEMENT_SET_NO>999</ELEMENT_SET_NO><REV_AT_EPOCH>3232</REV_AT_EPOCH><BSTAR>.27721088E-3</BSTAR><MEAN_MOTION_DOT>.1891E-4</MEAN_MOTION_DOT><MEAN_MOTION_DDOT>0</MEAN_MOTION_DDOT></tleParameters></data></segment></body></omm>
<omm id="CCSDS_OMM_VERS" version="2.0">
<header><CREATION_DATE/><ORIGINATOR/></header><body><segment><metadata><OBJECT_NAME>KUIPER-00059</OBJECT_NAME><OBJECT_ID>2025-134V</OBJECT_ID><CENTER_NAME>EARTH</CENTER_NAME><REF_FRAME>TEME</REF_FRAME><TIME_SYSTEM>UTC</TIME_SYSTEM><MEAN_ELEMENT_THEORY>SGP4</MEAN_ELEMENT_THEORY></metadata><data><meanElements><EPOCH>2026-01-15T15:11:17.235168</EPOCH><MEAN_MOTION>14.79911098</MEAN_MOTION><ECCENTRICITY>.00026781</ECCENTRICITY><INCLINATION>51.9026</INCLINATION><RA_OF_ASC_NODE>95.2035</RA_OF_ASC_NODE><ARG_OF_PERICENTER>302.0221</ARG_OF_PERICENTER><MEAN_ANOMALY>58.0481</MEAN_ANOMALY></meanElements><tleParameters><EPHEMERIS_TYPE>0</EPHEMERIS_TYPE><CLASSIFICATION_TYPE>U</CLASSIFICATION_TYPE><NORAD_CAT_ID>64519</NORAD_CAT_ID><ELEMENT_SET_NO>999</ELEMENT_SET_NO><REV_AT_EPOCH>3239</REV_AT_EPOCH><BSTAR>.30219156E-3</BSTAR><MEAN_MOTION_DOT>.2082E-4</MEAN_MOTION_DOT><MEAN_MOTION_DDOT>0</MEAN_MOTION_DDOT></tleParameters></data></segment></body></omm>
<omm id="CCSDS_OMM_VERS" version="2.0">
<header><CREATION_DATE/><ORIGINATOR/></header><body><segment><metadata><OBJECT_NAME>KUIPER-00060</OBJECT_NAME><OBJECT_ID>2025-134W</OBJECT_ID><CENTER_NAME>EARTH</CENTER_NAME><REF_FRAME>TEME</REF_FRAME><TIME_SYSTEM>UTC</TIME_SYSTEM><MEAN_ELEMENT_THEORY>SGP4</MEAN_ELEMENT_THEORY></metadata><data><meanElements><EPOCH>2026-01-15T15:08:46.210560</EPOCH><MEAN_MOTION>14.79953401</MEAN_MOTION><ECCENTRICITY>.00016078</ECCENTRICITY><INCLINATION>51.9036</INCLINATION><RA_OF_ASC_NODE>96.2563</RA_OF_ASC_NODE><ARG_OF_PERICENTER>189.5795</ARG_OF_PERICENTER><MEAN_ANOMALY>170.5137</MEAN_ANOMALY></meanElements><tleParameters><EPHEMERIS_TYPE>0</EPHEMERIS_TYPE><CLASSIFICATION_TYPE>U</CLASSIFICATION_TYPE><NORAD_CAT_ID>64520</NORAD_CAT_ID><ELEMENT_SET_NO>999</ELEMENT_SET_NO><REV_AT_EPOCH>3236</REV_AT_EPOCH><BSTAR>.2424755E-4</BSTAR><MEAN_MOTION_DOT>-.36E-6</MEAN_MOTION_DOT><MEAN_MOTION_DDOT>0</MEAN_MOTION_DDOT></tleParameters></data></segment></body></omm>

</ndm>
